[{"OBJECT_NAME":"STARLINK-6091","OBJECT_ID":"2023-046AC","EPOCH":"2026-03-09T22:00:01.999584","MEAN_MOTION":15.12146567,"ECCENTRICITY":0.00019288,"INCLINATION":42.9992,"RA_OF_ASC_NODE":144.7616,"ARG_OF_PERICENTER":284.3584,"MEAN_ANOMALY":155.5208,"EPHEMERIS_TYPE":0,"CLASSIFICATION_TYPE":"U","NORAD_CAT_ID":56119,"ELEMENT_SET_NO":999,"REV_AT_EPOCH":577,"BSTAR":0.00049828792,"MEAN_MOTION_DOT":8.529e-5,"MEAN_MOTION_DDOT":0},{"OBJECT_NAME":"ICEYE-X49","OBJECT_ID":"2024-247H","EPOCH":"2026-03-09T07:25:45.965856","MEAN_MOTION":15.11992896,"ECCENTRICITY":0.00021088,"INCLINATION":44.9974,"RA_OF_ASC_NODE":170.2236,"ARG_OF_PERICENTER":247.0457,"MEAN_ANOMALY":113.0198,"EPHEMERIS_TYPE":0,"CLASSIFICATION_TYPE":"U","NORAD_CAT_ID":62384,"ELEMENT_SET_NO":999,"REV_AT_EPOCH":6705,"BSTAR":0.0002452873,"MEAN_MOTION_DOT":4.029e-5,"MEAN_MOTION_DDOT":0}]
